
    {
      "objectName": "STARLINK-36487",
      "objectId": "2026-005N",
      "noradId": 67416,
      "epochUtc": "2026-02-27T06:00:02.000160",
      "meanMotionRevPerDay": 15.3313066,
      "eccentricity": 0.00016103,
      "inclinationDeg": 42.9997,
      "raanDeg": 297.332,
      "argPerigeeDeg": 271.4616,
      "meanAnomalyDeg": 153.6714,
      "bstar": -0.067863012,
      "meanMotionDot": -0.02007326,
      "meanMotionDdot": 0,
      "elementSetNo": 999,
      "revAtEpoch": 573
    },
    {
      "objectName": "STARLINK-36528",
      "objectId": "2026-008P",
      "noradId": 67458,
      "epochUtc": "2026-02-26T14:52:36.501024",
      "meanMotionRevPerDay": 15.28429145,
      "eccentricity": 0.0001054,
      "inclinationDeg": 42.9948,
      "raanDeg": 267.3485,
      "argPerigeeDeg": 262.4801,
      "meanAnomalyDeg": 97.5931,
      "bstar": 0.00090734,
      "meanMotionDot": 0.00025449,
      "meanMotionDdot": 0,
      "elementSetNo": 999,
      "revAtEpoch": 788
    },
    {
      "objectName": "STARLINK-36526",
      "objectId": "2026-012R",
      "noradId": 67508,
      "epochUtc": "2026-02-27T00:14:05.709120",
      "meanMotionRevPerDay": 15.2757287,
      "eccentricity": 0.00029495,
      "inclinationDeg": 43.0024,
      "raanDeg": 14.2634,
      "argPerigeeDeg": 298.2389,
      "meanAnomalyDeg": 61.8165,
      "bstar": 0.00071730395,
      "meanMotionDot": 0.00019526,
      "meanMotionDdot": 0,
      "elementSetNo": 999,
      "revAtEpoch": 613
    },
    {
      "objectName": "STARLINK-36564",
      "objectId": "2026-014T",
      "noradId": 67549,
      "epochUtc": "2026-02-27T05:15:00.063072",
      "meanMotionRevPerDay": 15.75115529,
      "eccentricity": 0.00016745,
      "inclinationDeg": 97.2852,
      "raanDeg": 302.6118,
      "argPerigeeDeg": 140.4808,
      "meanAnomalyDeg": 219.658,
      "bstar": 0.0015584421,
      "meanMotionDot": 0.00238156,
      "meanMotionDdot": 0,
      "elementSetNo": 999,
      "revAtEpoch": 686
    },
    {
      "objectName": "STARLINK-36577",
      "objectId": "2026-016Y",
      "noradId": 67583,
      "epochUtc": "2026-02-27T02:46:16.327200",
      "meanMotionRevPerDay": 15.75312591,
      "eccentricity": 0.00013358,
      "inclinationDeg": 97.2822,
      "raanDeg": 118.1561,
      "argPerigeeDeg": 92.4016,
      "meanAnomalyDeg": 267.7402,
      "bstar": 0.0018657506,
      "meanMotionDot": 0.00289327,
      "meanMotionDdot": 0,
      "elementSetNo": 999,
      "revAtEpoch": 514
    },
    {
      "objectName": "STARLINK-36119",
      "objectId": "2026-020C",
      "noradId": 67619,
      "epochUtc": "2026-02-26T18:45:26.920512",
      "meanMotionRevPerDay": 15.76494781,
      "eccentricity": 0.00039088,
      "inclinationDeg": 42.9996,
      "raanDeg": 208.5499,
      "argPerigeeDeg": 270.5491,
      "meanAnomalyDeg": 89.493,
      "bstar": 0.0022406856,
      "meanMotionDot": 0.00383607,
      "meanMotionDdot": 0,
      "elementSetNo": 999,
      "revAtEpoch": 436
    },
    {
      "objectName": "STARLINK-36696",
      "objectId": "2026-022D",
      "noradId": 67651,
      "epochUtc": "2026-02-27T01:12:03.442176",
      "meanMotionRevPerDay": 15.75245853,
      "eccentricity": 0.00016387,
      "inclinationDeg": 97.283,
      "raanDeg": 91.4969,
      "argPerigeeDeg": 94.8534,
      "meanAnomalyDeg": 265.2918,
      "bstar": 0.0015335776,
      "meanMotionDot": 0.00235606,
      "meanMotionDdot": 0,
      "elementSetNo": 999,
      "revAtEpoch": 387
    },
    {
      "objectName": "STARLINK-36713",
      "objectId": "2026-025J",
      "noradId": 67701,
      "epochUtc": "2026-02-27T06:00:02.000160",
      "meanMotionRevPerDay": 15.75115556,
      "eccentricity": 0.00012531,
      "inclinationDeg": 97.2857,
      "raanDeg": 169.309,
      "argPerigeeDeg": 86.1235,
      "meanAnomalyDeg": 13.5519,
      "bstar": 0.0009408015,
      "meanMotionDot": 0.00142096,
      "meanMotionDdot": 0,
      "elementSetNo": 999,
      "revAtEpoch": 433
    },
    {
      "objectName": "STARLINK-36733",
      "objectId": "2026-032Q",
      "noradId": 67811,
      "epochUtc": "2026-02-27T06:00:02.000160",
      "meanMotionRevPerDay": 15.80820506,
      "eccentricity": 0.00014985,
      "inclinationDeg": 97.2841,
      "raanDeg": 244.2434,
      "argPerigeeDeg": 93.3545,
      "meanAnomalyDeg": 191.5981,
      "bstar": -0.00021553058,
      "meanMotionDot": -0.00041241,
      "meanMotionDdot": 0,
      "elementSetNo": 999,
      "revAtEpoch": 310
    },
    {
      "objectName": "STARLINK-36656",
      "objectId": "2026-033W",
      "noradId": 67841,
      "epochUtc": "2026-02-27T06:00:02.000160",
      "meanMotionRevPerDay": 15.81951319,
      "eccentricity": 0.00015517,
      "inclinationDeg": 42.999,
      "raanDeg": 335.3029,
      "argPerigeeDeg": 287.9839,
      "meanAnomalyDeg": 357.5302,
      "bstar": 0.00054482531,
      "meanMotionDot": 0.00115376,
      "meanMotionDdot": 0,
      "elementSetNo": 999,
      "revAtEpoch": 298
    },
    {
      "objectName": "STARLINK-36769",
      "objectId": "2026-034X",
      "noradId": 67871,
      "epochUtc": "2026-02-27T06:00:02.000160",
      "meanMotionRevPerDay": 15.91095149,
      "eccentricity": 0.00007808,
      "inclinationDeg": 53.1502,
      "raanDeg": 263.6236,
      "argPerigeeDeg": 69.8161,
      "meanAnomalyDeg": 29.56,
      "bstar": -0.0051535426,
      "meanMotionDot": -0.01662916,
      "meanMotionDdot": 0.00076628122,
      "elementSetNo": 999,
      "revAtEpoch": 218
    },
    {
      "objectName": "STARLINK-36336",
      "objectId": "2026-035Y",
      "noradId": 67901,
      "epochUtc": "2026-02-27T06:00:02.000160",
      "meanMotionRevPerDay": 16.09838337,
      "eccentricity": 0.00008865,
      "inclinationDeg": 97.2808,
      "raanDeg": 349.7087,
      "argPerigeeDeg": 91.0495,
      "meanAnomalyDeg": 225.2227,
      "bstar": -0.00067297422,
      "meanMotionDot": -0.00617921,
      "meanMotionDdot": 0.00015119988,
      "elementSetNo": 999,
      "revAtEpoch": 212
    }