STARLINK-36487          
1 67416U 26005N   26058.25002315 -.02007326  00000+0 -67863-1 0  9998
2 67416  42.9997 297.3320 0001610 271.4616 153.6714 15.33130660  5737
STARLINK-36528          
1 67458U 26008P   26057.61986691  .00025449  00000+0  90734-3 0  9991
2 67458  42.9948 267.3485 0001054 262.4801  97.5931 15.28429145  7884
STARLINK-36526          
1 67508U 26012R   26058.00978830  .00019526  00000+0  71730-3 0  9996
2 67508  43.0024  14.2634 0002949 298.2389  61.8165 15.27572870  6137
STARLINK-36564          
1 67549U 26014T   26058.21875073  .00238156  00000+0  15584-2 0  9997
2 67549  97.2852 302.6118 0001674 140.4808 219.6580 15.75115529  6862
STARLINK-36577          
1 67583U 26016Y   26058.11546675  .00289327  00000+0  18658-2 0  9990
2 67583  97.2822 118.1561 0001335  92.4016 267.7402 15.75312591  5145
STARLINK-36119          
1 67619U 26020C   26057.78156158  .00383607  00000+0  22407-2 0  9993
2 67619  42.9996 208.5499 0003908 270.5491  89.4930 15.76494781  4363
STARLINK-36696          
1 67651U 26022D   26058.05003984  .00235606  00000+0  15336-2 0  9998
2 67651  97.2830  91.4969 0001638  94.8534 265.2918 15.75245853  3871
STARLINK-36713          
1 67701U 26025J   26058.25002315  .00142096  00000+0  94080-3 0  9990
2 67701  97.2857 169.3090 0001253  86.1235  13.5519 15.75115556  4330
STARLINK-36733          
1 67811U 26032Q   26058.25002315 -.00041241  00000+0 -21553-3 0  9997
2 67811  97.2841 244.2434 0001498  93.3545 191.5981 15.80820506  3103
STARLINK-36656          
1 67841U 26033W   26058.25002315  .00115376  00000+0  54483-3 0  9998
2 67841  42.9990 335.3029 0001551 287.9839 357.5302 15.81951319  2981
STARLINK-36769          
1 67871U 26034X   26058.25002315 -.01662916  76628-3 -51535-2 0  9999
2 67871  53.1502 263.6236 0000780  69.8161  29.5600 15.91095149  2188
STARLINK-36336          
1 67901U 26035Y   26058.25002315 -.00617921  15120-3 -67297-3 0  9992
2 67901  97.2808 349.7087 0000886  91.0495 225.2227 16.09838337  2122
